{"type":"FeatureCollection","source":"Census TIGERweb State_County layer 0, maxAllowableOffset 0.003 deg, fetched 2026-09-14","features":[{"type":"Feature","properties":{"STUSAB":"MI"},"geometry":{"type":"Polygon","coordinates":[[[-87.1127,47.818],[-87.5001,47.9681],[-87.6251,48.0211],[-87.7501,48.0639],[-87.8751,48.1147],[-88.0001,48.1559],[-88.0001,48.1641],[-88.3699,48.3061],[-88.6774,48.2454],[-89.3375,47.9743],[-89.4834,48.0137],[-89.9571,47.2911],[-90.0001,47.215],[-90.4184,46.5661],[-90.415,46.5577],[-90.3922,46.536],[-90.3933,46.5324],[-90.3682,46.5411],[-90.3507,46.5403],[-90.3468,46.5493],[-90.3394,46.5493],[-90.3435,46.5525],[-90.3322,46.5534],[-90.3094,46.5373],[-90.3166,46.5169],[-90.2946,46.5217],[-90.2845,46.5187],[-90.2769,46.5244],[-90.2718,46.5193],[-90.2776,46.5148],[-90.2704,46.5117],[-90.2726,46.5045],[-90.2666,46.5079],[-90.2615,46.5026],[-90.2312,46.5099],[-90.2309,46.5015],[-90.2166,46.5016],[-90.2042,46.4783],[-90.1888,46.4689],[-90.1936,46.4634],[-90.1908,46.4598],[-90.1783,46.4574],[-90.1784,46.4405],[-90.1674,46.4417],[-90.1573,46.4211],[-90.1584,46.4095],[-90.1322,46.3811],[-90.134,46.3718],[-90.1187,46.3593],[-90.1169,46.3507],[-90.1237,46.3463],[-90.118,46.3415],[-90.1206,46.337],[-89.0916,46.1384],[-88.8508,46.0403],[-88.8391,46.03],[-88.8191,46.0263],[-88.816,46.0206],[-88.7965,46.0236],[-88.8007,46.03],[-88.7965,46.0337],[-88.7893,46.0285],[-88.7787,46.0317],[-88.7839,46.0238],[-88.7802,46.0154],[-88.7698,46.0189],[-88.7706,46.0256],[-88.759,46.0196],[-88.739,46.0275],[-88.7213,46.0222],[-88.7183,46.0132],[-88.7037,46.0183],[-88.6789,46.0136],[-88.6635,45.9927],[-88.6708,45.9885],[-88.6385,45.9851],[-88.616,45.9879],[-88.6127,46.0045],[-88.6012,46.0178],[-88.5935,46.0148],[-88.5883,46.0051],[-88.5657,46.0157],[-88.5492,46.0129],[-88.5394,46.0145],[-88.5337,46.0211],[-88.5147,46.02],[-88.5064,46.0176],[-88.498,45.9958],[-88.4894,45.9914],[-88.4752,45.9931],[-88.4708,46.001],[-88.4587,45.9995],[-88.45,45.9901],[-88.4348,45.9883],[-88.4164,45.9751],[-88.3886,45.9826],[-88.3805,45.9918],[-88.3303,45.9658],[-88.3273,45.955],[-88.3203,45.9637],[-88.2938,45.9509],[-88.2469,45.9635],[-88.2448,45.9529],[-88.2371,45.9483],[-88.2099,45.9442],[-88.1921,45.9527],[-88.1701,45.9395],[-88.1477,45.9374],[-88.1268,45.926],[-88.1267,45.9218],[-88.1025,45.9215],[-88.0949,45.9153],[-88.1066,45.9022],[-88.1013,45.8823],[-88.0818,45.8802],[-88.0698,45.8729],[-88.0758,45.8696],[-88.0748,45.8649],[-88.0825,45.865],[-88.1052,45.8424],[-88.1345,45.8225],[-88.1301,45.8097],[-88.1076,45.803],[-88.1032,45.7913],[-88.0948,45.7858],[-88.0722,45.7801],[-88.05,45.7812],[-88.0409,45.7843],[-88.0397,45.7896],[-87.9914,45.7954],[-87.9809,45.777],[-87.9897,45.772],[-87.967,45.764],[-87.9635,45.7582],[-87.9067,45.7595],[-87.8984,45.7525],[-87.8769,45.7544],[-87.8622,45.745],[-87.8643,45.7371],[-87.8555,45.7269],[-87.8373,45.7169],[-87.8101,45.7102],[-87.8051,45.705],[-87.8091,45.6997],[-87.7822,45.6831],[-87.7816,45.6733],[-87.8242,45.662],[-87.8244,45.6477],[-87.8102,45.6387],[-87.7959,45.6188],[-87.7808,45.6146],[-87.7747,45.602],[-87.7772,45.5885],[-87.7868,45.5828],[-87.7924,45.5631],[-87.8293,45.5688],[-87.8337,45.5616],[-87.8034,45.5383],[-87.8022,45.5131],[-87.7928,45.5],[-87.813,45.4642],[-87.8312,45.4572],[-87.8617,45.4345],[-87.8493,45.4039],[-87.8591,45.399],[-87.8594,45.3882],[-87.8754,45.3794],[-87.8715,45.3715],[-87.8849,45.3628],[-87.8881,45.3547],[-87.8811,45.3513],[-87.8704,45.3563],[-87.8758,45.365],[-87.8692,45.366],[-87.8635,45.353],[-87.8504,45.3475],[-87.8501,45.3404],[-87.8326,45.3522],[-87.7541,45.3494],[-87.7509,45.355],[-87.7388,45.3569],[-87.7189,45.3775],[-87.694,45.3899],[-87.675,45.3825],[-87.6735,45.3769],[-87.6574,45.3688],[-87.6564,45.3584],[-87.6477,45.3507],[-87.6481,45.3394],[-87.6616,45.3276],[-87.6617,45.3207],[-87.6719,45.3081],[-87.6875,45.2981],[-87.6982,45.2815],[-87.6988,45.2694],[-87.7104,45.2593],[-87.7113,45.24],[-87.725,45.2321],[-87.7214,45.2268],[-87.727,45.2189],[-87.7262,45.2094],[-87.7418,45.1975],[-87.7361,45.1722],[-87.6839,45.1441],[-87.66,45.1075],[-87.6315,45.1062],[-87.5919,45.0947],[-87.5854,45.0969],[-87.4425,45.0764],[-87.4057,45.202],[-87.3154,45.2407],[-87.1712,45.3525],[-87.1011,45.4442],[-86.7542,45.4436],[-86.2495,45.2361],[-86.4999,45.0808],[-86.6863,44.881],[-86.8552,44.5003],[-86.8477,44.5003],[-87.0132,44.1319],[-87.1141,43.7341],[-87.1251,43.6704],[-87.1472,43.3799],[-87.0199,42.4938],[-87.15,42.0],[-87.2078,41.761],[-84.8059,41.7602],[-84.806,41.6961],[-83.4159,41.7338],[-83.1125,41.9594],[-83.1494,42.0403],[-83.1217,42.1254],[-83.1339,42.1748],[-83.128,42.2387],[-83.1116,42.2601],[-83.0977,42.2897],[-83.08,42.3072],[-83.0262,42.3289],[-82.9892,42.3325],[-82.9455,42.3474],[-82.8303,42.3735],[-82.6619,42.5417],[-82.6337,42.5568],[-82.6243,42.5571],[-82.6057,42.5482],[-82.5855,42.5532],[-82.5788,42.566],[-82.5189,42.6137],[-82.51,42.6368],[-82.5109,42.665],[-82.484,42.7179],[-82.4834,42.7335],[-82.4677,42.7619],[-82.4706,42.7837],[-82.4826,42.8086],[-82.4687,42.852],[-82.4697,42.8875],[-82.456,42.9258],[-82.4167,42.9664],[-82.4135,42.9769],[-82.423,42.9884],[-82.4237,42.9985],[-82.411,43.0113],[-82.39,43.0622],[-82.123,43.5908],[-82.3749,44.7164],[-82.5206,45.3359],[-83.0,45.5564],[-83.484,45.7719],[-83.6369,45.7739],[-83.4336,45.9989],[-83.5715,46.106],[-83.6546,46.1221],[-83.7595,46.1032],[-83.8262,46.1193],[-83.9035,46.0609],[-83.9554,46.0572],[-83.9761,46.1026],[-84.0059,46.1185],[-84.0057,46.1496],[-84.077,46.1876],[-84.0858,46.21],[-84.1081,46.2412],[-84.0978,46.2565],[-84.1156,46.2682],[-84.1196,46.315],[-84.1062,46.322],[-84.1389,46.3722],[-84.1462,46.4185],[-84.1112,46.5041],[-84.1289,46.5301],[-84.1774,46.5269],[-84.194,46.5401],[-84.2261,46.5339],[-84.2549,46.5008],[-84.2758,46.4928],[-84.293,46.4928],[-84.342,46.5075],[-84.374,46.5091],[-84.3947,46.4992],[-84.4203,46.5011],[-84.4451,46.489],[-84.4756,46.4529],[-84.557,46.4606],[-84.763,46.6343],[-84.8593,46.8888],[-85.2501,47.0565],[-85.8751,47.3163],[-86.0001,47.3673],[-86.0001,47.3619],[-86.0273,47.375],[-86.02,47.375],[-86.1251,47.4167],[-86.1251,47.4235],[-86.2501,47.4744],[-86.2501,47.4779],[-86.5001,47.5683],[-86.6251,47.6178],[-86.6343,47.6249],[-86.6313,47.6249],[-86.7501,47.6749],[-86.9492,47.7499],[-86.9406,47.7499],[-87.1127,47.818]]]}},{"type":"Feature","properties":{"STUSAB":"IN"},"geometry":{"type":"Polygon","coordinates":[[[-86.3296,38.1818],[-86.2914,38.1615],[-86.2718,38.1389],[-86.2786,38.0864],[-86.2678,38.0571],[-86.2333,38.0396],[-86.2202,38.028],[-86.1782,38.0106],[-86.1253,38.0162],[-86.0946,38.0088],[-86.0739,37.9955],[-86.0773,37.9974],[-86.0511,37.9613],[-86.0389,37.959],[-86.0341,37.9654],[-86.035,37.9843],[-86.0304,37.9921],[-86.0095,37.9984],[-85.9465,38.0052],[-85.9257,38.0218],[-85.9139,38.0719],[-85.9051,38.09],[-85.9091,38.1423],[-85.9062,38.1679],[-85.8827,38.2008],[-85.8436,38.2322],[-85.8366,38.2641],[-85.8291,38.2766],[-85.7812,38.2883],[-85.7664,38.2805],[-85.7609,38.2719],[-85.7435,38.2673],[-85.68,38.2976],[-85.6523,38.3288],[-85.6394,38.3611],[-85.6318,38.3984],[-85.6203,38.4234],[-85.607,38.4386],[-85.5828,38.451],[-85.5344,38.4558],[-85.5057,38.4647],[-85.4889,38.4777],[-85.4697,38.508],[-85.4342,38.5233],[-85.4195,38.5353],[-85.4157,38.5632],[-85.438,38.6045],[-85.4386,38.6589],[-85.4567,38.6864],[-85.4518,38.7101],[-85.4359,38.7287],[-85.4141,38.7369],[-85.3644,38.7304],[-85.3061,38.7415],[-85.2724,38.7407],[-85.2465,38.7317],[-85.2131,38.6955],[-85.1889,38.6876],[-85.1732,38.688],[-85.1374,38.6999],[-85.102,38.7263],[-84.9919,38.7783],[-84.9411,38.7757],[-84.8876,38.7948],[-84.8289,38.7833],[-84.8125,38.7867],[-84.814,38.8002],[-84.83,38.8301],[-84.8236,38.8389],[-84.7915,38.86],[-84.7853,38.8804],[-84.8122,38.895],[-84.8666,38.8988],[-84.8772,38.9094],[-84.8769,38.9217],[-84.8343,38.9588],[-84.83,38.9726],[-84.8386,38.9899],[-84.8858,39.0377],[-84.8974,39.0574],[-84.8891,39.0661],[-84.8624,39.0771],[-84.8202,39.1054],[-84.8142,39.8137],[-84.8036,40.3121],[-84.8059,41.7602],[-87.5237,41.7599],[-87.5262,40.5058],[-87.5333,39.875],[-87.5316,39.3479],[-87.544,39.3529],[-87.5544,39.3405],[-87.5783,39.3403],[-87.5891,39.3338],[-87.6059,39.3111],[-87.6206,39.307],[-87.6178,39.3013],[-87.6053,39.3032],[-87.5979,39.2995],[-87.6101,39.2822],[-87.6014,39.2744],[-87.6055,39.2611],[-87.5947,39.2487],[-87.5807,39.2552],[-87.5716,39.2523],[-87.5793,39.2436],[-87.5746,39.2184],[-87.5886,39.1978],[-87.6016,39.1925],[-87.6079,39.1845],[-87.6204,39.1852],[-87.6196,39.171],[-87.6404,39.1667],[-87.6415,39.1605],[-87.6277,39.1549],[-87.6422,39.1571],[-87.6528,39.1494],[-87.6587,39.136],[-87.635,39.1221],[-87.6408,39.1144],[-87.6521,39.1155],[-87.6528,39.1068],[-87.6157,39.1033],[-87.6203,39.0866],[-87.5964,39.0796],[-87.5726,39.0573],[-87.5723,39.0506],[-87.5804,39.0407],[-87.5697,39.0194],[-87.5791,39.0016],[-87.5604,38.9924],[-87.5783,38.9888],[-87.5295,38.9719],[-87.5122,38.9544],[-87.5218,38.9411],[-87.5167,38.9335],[-87.5188,38.9232],[-87.5277,38.9192],[-87.5276,38.9077],[-87.5168,38.9037],[-87.5337,38.901],[-87.536,38.887],[-87.5391,38.8961],[-87.5441,38.8951],[-87.5443,38.889],[-87.5349,38.8789],[-87.5471,38.876],[-87.5426,38.8653],[-87.5534,38.8624],[-87.5267,38.8504],[-87.5217,38.8266],[-87.5273,38.8181],[-87.4955,38.7846],[-87.4986,38.7765],[-87.5149,38.7705],[-87.4969,38.7668],[-87.504,38.7485],[-87.4958,38.7407],[-87.5062,38.7337],[-87.5195,38.7105],[-87.5196,38.6972],[-87.5312,38.684],[-87.5937,38.6674],[-87.6002,38.6625],[-87.6058,38.6465],[-87.6201,38.6395],[-87.6156,38.625],[-87.6273,38.6054],[-87.6241,38.597],[-87.6124,38.5946],[-87.612,38.5892],[-87.6229,38.5862],[-87.6384,38.5922],[-87.6382,38.5763],[-87.6511,38.569],[-87.6507,38.5562],[-87.6701,38.5452],[-87.6561,38.5217],[-87.6454,38.5138],[-87.6467,38.5078],[-87.6582,38.5017],[-87.6719,38.5076],[-87.6932,38.488],[-87.714,38.4799],[-87.74,38.4792],[-87.75,38.4714],[-87.7559,38.4559],[-87.7357,38.453],[-87.7301,38.4465],[-87.741,38.4356],[-87.7453,38.409],[-87.78,38.3708],[-87.8061,38.3631],[-87.8227,38.3469],[-87.8327,38.3249],[-87.8315,38.2967],[-87.841,38.2801],[-87.8511,38.2751],[-87.8618,38.2786],[-87.8662,38.29],[-87.8605,38.3054],[-87.8705,38.3122],[-87.8794,38.3065],[-87.8878,38.2853],[-87.9101,38.2681],[-87.9195,38.2745],[-87.9085,38.291],[-87.9095,38.2961],[-87.9214,38.2993],[-87.9348,38.2951],[-87.9403,38.2811],[-87.9521,38.2738],[-87.943,38.2578],[-87.9576,38.25],[-87.9602,38.2371],[-87.969,38.2374],[-87.9723,38.247],[-87.9819,38.2564],[-87.9881,38.2567],[-87.9798,38.2417],[-87.9856,38.218],[-87.9775,38.1998],[-87.9372,38.1722],[-87.9343,38.1565],[-87.926,38.1593],[-87.9217,38.1738],[-87.9131,38.1715],[-87.9109,38.1626],[-87.9279,38.1516],[-87.9258,38.1436],[-87.9455,38.1266],[-87.9549,38.1326],[-87.9664,38.1325],[-87.973,38.125],[-87.9761,38.1096],[-87.9982,38.1086],[-88.0151,38.1014],[-88.0114,38.0847],[-87.9607,38.1002],[-87.9567,38.0862],[-87.9672,38.0671],[-87.9787,38.0598],[-88.0013,38.0515],[-88.03,38.0521],[-88.0421,38.0463],[-88.0415,38.0373],[-88.0341,38.032],[-88.0176,38.0347],[-88.0079,38.0308],[-88.021,38.0193],[-88.0258,38.0072],[-88.0126,37.9771],[-88.0129,37.9665],[-88.0209,37.9594],[-88.0368,37.9568],[-88.0303,37.931],[-88.0341,37.9262],[-88.045,37.9251],[-88.0571,37.9342],[-88.0695,37.9257],[-88.0592,37.9172],[-88.0225,37.9148],[-88.0135,37.894],[-88.0211,37.8881],[-88.0313,37.893],[-88.0554,37.8912],[-88.0862,37.9057],[-88.0957,37.9058],[-88.0979,37.9015],[-88.0785,37.8791],[-88.065,37.8532],[-88.0314,37.8412],[-88.0259,37.8327],[-88.0315,37.8251],[-88.0438,37.8215],[-88.0819,37.8307],[-88.0901,37.8256],[-88.0912,37.8192],[-88.0689,37.801],[-88.0355,37.8095],[-88.028,37.7992],[-88.0047,37.8001],[-87.9729,37.7854],[-87.9595,37.773],[-87.9462,37.7734],[-87.9345,37.7961],[-87.9074,37.8071],[-87.9036,37.8168],[-87.91,37.843],[-87.938,37.8703],[-87.9401,37.8876],[-87.9086,37.9217],[-87.8944,37.9281],[-87.875,37.9229],[-87.8397,37.8808],[-87.8298,37.8764],[-87.7914,37.8757],[-87.7592,37.8917],[-87.7182,37.8926],[-87.6844,37.9037],[-87.675,37.9016],[-87.664,37.8875],[-87.6817,37.8563],[-87.6777,37.8342],[-87.6703,37.828],[-87.6531,37.826],[-87.6173,37.8312],[-87.5975,37.848],[-87.5837,37.8781],[-87.5929,37.8898],[-87.6204,37.9074],[-87.6271,37.9257],[-87.6174,37.9383],[-87.6223,37.9363],[-87.6058,37.9496],[-87.6014,37.9713],[-87.5874,37.9753],[-87.5755,37.967],[-87.5775,37.9517],[-87.5736,37.9517],[-87.5609,37.9321],[-87.5106,37.9061],[-87.4491,37.9419],[-87.4141,37.9448],[-87.3862,37.9378],[-87.3444,37.911],[-87.2976,37.8956],[-87.2203,37.849],[-87.1617,37.8398],[-87.1411,37.8155],[-87.1294,37.786],[-87.1083,37.7827],[-87.0893,37.7879],[-87.0654,37.8076],[-87.0432,37.8684],[-87.0459,37.8926],[-87.0342,37.9063],[-86.9762,37.9311],[-86.9189,37.9368],[-86.902,37.9464],[-86.8609,37.9844],[-86.8197,37.9994],[-86.795,37.9892],[-86.7778,37.9517],[-86.7325,37.8948],[-86.7174,37.8935],[-86.6808,37.915],[-86.6479,37.9094],[-86.6443,37.8965],[-86.6622,37.8528],[-86.6552,37.8425],[-86.6383,37.8427],[-86.6087,37.8557],[-86.5982,37.8672],[-86.6001,37.9052],[-86.5887,37.9211],[-86.5338,37.9172],[-86.5073,37.9295],[-86.5093,37.9423],[-86.5249,37.9665],[-86.5217,38.0396],[-86.5088,38.045],[-86.4539,38.0501],[-86.4361,38.0629],[-86.4306,38.0753],[-86.434,38.0864],[-86.4628,38.0994],[-86.4647,38.1174],[-86.4514,38.1268],[-86.4327,38.1264],[-86.4019,38.1043],[-86.3806,38.1291],[-86.3328,38.1296],[-86.3239,38.1383],[-86.3229,38.1512],[-86.3712,38.1638],[-86.3785,38.1816],[-86.373,38.1942],[-86.3598,38.1988],[-86.3296,38.1818]]]}},{"type":"Feature","properties":{"STUSAB":"WI"},"geometry":{"type":"Polygon","coordinates":[[[-89.5548,46.2279],[-90.1206,46.337],[-90.118,46.3415],[-90.1237,46.3463],[-90.1169,46.3507],[-90.1187,46.3593],[-90.134,46.3718],[-90.1322,46.3811],[-90.1584,46.4095],[-90.1573,46.4211],[-90.1674,46.4417],[-90.1784,46.4405],[-90.1783,46.4574],[-90.1908,46.4598],[-90.1936,46.4634],[-90.1888,46.4689],[-90.2042,46.4783],[-90.2166,46.5016],[-90.2309,46.5015],[-90.2312,46.5099],[-90.2615,46.5026],[-90.2666,46.5079],[-90.2726,46.5045],[-90.2704,46.5117],[-90.2776,46.5148],[-90.2718,46.5193],[-90.2769,46.5244],[-90.2845,46.5187],[-90.2946,46.5217],[-90.3166,46.5169],[-90.3094,46.5373],[-90.3322,46.5534],[-90.3435,46.5525],[-90.3394,46.5493],[-90.3468,46.5493],[-90.3507,46.5403],[-90.3682,46.5411],[-90.3933,46.5324],[-90.3922,46.536],[-90.415,46.5577],[-90.4184,46.5661],[-90.0001,47.215],[-89.9571,47.2911],[-90.6547,47.3098],[-91.5002,46.9133],[-91.9813,46.7231],[-92.0203,46.704],[-92.034,46.7089],[-92.0895,46.7492],[-92.1166,46.7486],[-92.1379,46.7395],[-92.1487,46.7151],[-92.1673,46.7199],[-92.1891,46.7175],[-92.2047,46.704],[-92.2052,46.6983],[-92.183,46.6957],[-92.1759,46.6865],[-92.2041,46.6669],[-92.2016,46.6566],[-92.2071,46.6519],[-92.2425,46.6492],[-92.2566,46.6587],[-92.2706,46.6507],[-92.2744,46.6574],[-92.2862,46.6603],[-92.2874,46.6673],[-92.2922,46.666],[-92.294,46.0744],[-92.3329,46.0627],[-92.3518,46.0157],[-92.3727,46.0142],[-92.4119,46.0275],[-92.4286,46.0242],[-92.4423,46.0162],[-92.4534,45.9929],[-92.4645,45.985],[-92.4616,45.9789],[-92.4698,45.9736],[-92.5252,45.9839],[-92.5498,45.968],[-92.5519,45.9517],[-92.6143,45.9345],[-92.6388,45.9342],[-92.6391,45.9246],[-92.6561,45.9244],[-92.6762,45.9121],[-92.6774,45.9058],[-92.7077,45.8949],[-92.7382,45.862],[-92.74,45.8463],[-92.7651,45.8302],[-92.7578,45.8066],[-92.7765,45.79],[-92.7846,45.7642],[-92.8098,45.7442],[-92.8692,45.7176],[-92.8701,45.6968],[-92.8894,45.6412],[-92.8825,45.6102],[-92.8864,45.5987],[-92.8837,45.5755],[-92.8711,45.5676],[-92.8233,45.5609],[-92.7734,45.5682],[-92.7456,45.553],[-92.7248,45.5386],[-92.7267,45.5145],[-92.7129,45.5048],[-92.6802,45.4643],[-92.6535,45.4553],[-92.6465,45.4403],[-92.6503,45.3988],[-92.6641,45.3933],[-92.6792,45.3727],[-92.7027,45.3585],[-92.699,45.3364],[-92.7048,45.3265],[-92.7371,45.3005],[-92.762,45.2882],[-92.7519,45.2659],[-92.7603,45.2517],[-92.7517,45.2187],[-92.7639,45.2049],[-92.7668,45.1855],[-92.7524,45.1739],[-92.7491,45.1487],[-92.7522,45.1425],[-92.7396,45.1156],[-92.7927,45.0788],[-92.8031,45.0616],[-92.7956,45.0492],[-92.7621,45.0243],[-92.7712,45.0014],[-92.7694,44.9721],[-92.7546,44.9558],[-92.7506,44.9373],[-92.7587,44.909],[-92.7746,44.8981],[-92.7634,44.8741],[-92.7695,44.862],[-92.7659,44.8356],[-92.7808,44.8123],[-92.7856,44.7919],[-92.8044,44.7708],[-92.8082,44.7511],[-92.7923,44.7394],[-92.732,44.7143],[-92.661,44.6609],[-92.632,44.6492],[-92.6202,44.6342],[-92.6216,44.6149],[-92.6016,44.612],[-92.5862,44.6001],[-92.5772,44.605],[-92.5689,44.6034],[-92.5498,44.5811],[-92.5489,44.5683],[-92.5192,44.5753],[-92.4937,44.5661],[-92.481,44.5684],[-92.4589,44.5627],[-92.4386,44.5526],[-92.4157,44.5605],[-92.3361,44.554],[-92.3141,44.538],[-92.303,44.5186],[-92.3022,44.5003],[-92.291,44.4855],[-92.2309,44.4445],[-92.1954,44.4338],[-92.1245,44.4221],[-92.0786,44.4049],[-92.0565,44.4027],[-92.0381,44.3887],[-91.9668,44.364],[-91.9413,44.341],[-91.9256,44.3335],[-91.9186,44.3227],[-91.9136,44.3104],[-91.9246,44.2918],[-91.8964,44.2747],[-91.896,44.2629],[-91.887,44.2518],[-91.8927,44.2311],[-91.8774,44.2129],[-91.8752,44.2006],[-91.8292,44.1783],[-91.8081,44.1593],[-91.7517,44.1348],[-91.7216,44.1303],[-91.7106,44.1205],[-91.7075,44.1039],[-91.6815,44.0974],[-91.6479,44.0641],[-91.6105,44.0493],[-91.5921,44.0314],[-91.5071,44.019],[-91.4809,44.0081],[-91.4635,44.009],[-91.4393,44.001],[-91.406,43.9639],[-91.3858,43.9542],[-91.3666,43.9375],[-91.3574,43.9172],[-91.3477,43.912],[-91.3381,43.8977],[-91.3206,43.8885],[-91.311,43.8674],[-91.2841,43.8471],[-91.2624,43.7922],[-91.2441,43.7747],[-91.2554,43.7449],[-91.2559,43.7298],[-91.2685,43.7098],[-91.2733,43.6666],[-91.2717,43.6549],[-91.2624,43.6418],[-91.2687,43.6153],[-91.2319,43.5818],[-91.2328,43.5648],[-91.2432,43.5507],[-91.2432,43.5403],[-91.2329,43.524],[-91.2174,43.5125],[-91.216,43.4811],[-91.2334,43.4552],[-91.2031,43.4198],[-91.1977,43.3953],[-91.2148,43.3659],[-91.204,43.3499],[-91.1373,43.3298],[-91.1072,43.3136],[-91.0737,43.2747],[-91.0726,43.2621],[-91.0579,43.2554],[-91.0664,43.2393],[-91.1222,43.1973],[-91.1462,43.1524],[-91.1753,43.1347],[-91.1779,43.1289],[-91.1752,43.1038],[-91.1795,43.0674],[-91.1566,42.9782],[-91.1459,42.9608],[-91.1499,42.942],[-91.1443,42.9266],[-91.1448,42.906],[-91.1174,42.8958],[-91.1006,42.8831],[-91.0977,42.8599],[-91.0914,42.8499],[-91.0941,42.8308],[-91.0787,42.8277],[-91.0695,42.7696],[-91.0603,42.7618],[-91.0658,42.7534],[-91.0563,42.7473],[-91.0537,42.7382],[-91.0354,42.7373],[-91.0268,42.7242],[-91.0001,42.7162],[-90.9777,42.6968],[-90.9492,42.6856],[-90.9212,42.6854],[-90.8874,42.6725],[-90.7092,42.6361],[-90.694,42.6145],[-90.687,42.5918],[-90.6615,42.568],[-90.6541,42.5499],[-90.6447,42.5413],[-90.6358,42.5179],[-90.6428,42.5085],[-89.6698,42.505],[-88.7766,42.4919],[-88.1389,42.4956],[-87.7934,42.4917],[-87.0199,42.4935],[-87.1472,43.3799],[-87.1251,43.6704],[-87.1141,43.7341],[-87.0132,44.1319],[-86.8477,44.5003],[-86.8552,44.5003],[-86.6863,44.881],[-86.4999,45.0808],[-86.2495,45.2361],[-86.7542,45.4436],[-87.1011,45.4442],[-87.1712,45.3525],[-87.3154,45.2407],[-87.4057,45.202],[-87.4425,45.0764],[-87.5854,45.0969],[-87.5919,45.0947],[-87.6315,45.1062],[-87.66,45.1075],[-87.6839,45.1441],[-87.7361,45.1722],[-87.7418,45.1975],[-87.7262,45.2094],[-87.727,45.2189],[-87.7214,45.2268],[-87.725,45.2321],[-87.7113,45.24],[-87.7104,45.2593],[-87.6988,45.2694],[-87.6982,45.2815],[-87.6875,45.2981],[-87.6719,45.3081],[-87.6617,45.3207],[-87.6616,45.3276],[-87.6481,45.3394],[-87.6477,45.3507],[-87.6564,45.3584],[-87.6574,45.3688],[-87.6735,45.3769],[-87.675,45.3825],[-87.694,45.3899],[-87.7189,45.3775],[-87.7388,45.3569],[-87.7509,45.355],[-87.7541,45.3494],[-87.8326,45.3522],[-87.8501,45.3404],[-87.8504,45.3475],[-87.8635,45.353],[-87.8692,45.366],[-87.8758,45.365],[-87.8704,45.3563],[-87.8811,45.3513],[-87.8881,45.3547],[-87.8849,45.3628],[-87.8715,45.3715],[-87.8754,45.3794],[-87.8594,45.3882],[-87.8591,45.399],[-87.8493,45.4039],[-87.8617,45.4345],[-87.8312,45.4572],[-87.813,45.4642],[-87.7928,45.5],[-87.8022,45.5131],[-87.8034,45.5383],[-87.8337,45.5616],[-87.8293,45.5688],[-87.7924,45.5631],[-87.7868,45.5828],[-87.7772,45.5885],[-87.7747,45.602],[-87.7808,45.6146],[-87.7959,45.6188],[-87.8102,45.6387],[-87.8244,45.6477],[-87.8242,45.662],[-87.7816,45.6733],[-87.7822,45.6831],[-87.8091,45.6997],[-87.8051,45.705],[-87.8101,45.7102],[-87.8373,45.7169],[-87.8555,45.7269],[-87.8643,45.7371],[-87.8622,45.745],[-87.8769,45.7544],[-87.8984,45.7525],[-87.9067,45.7595],[-87.9635,45.7582],[-87.967,45.764],[-87.9897,45.772],[-87.9809,45.777],[-87.9914,45.7954],[-88.0397,45.7896],[-88.0409,45.7843],[-88.05,45.7812],[-88.0722,45.7801],[-88.0948,45.7858],[-88.1032,45.7913],[-88.1076,45.803],[-88.1301,45.8097],[-88.1345,45.8225],[-88.1052,45.8424],[-88.0825,45.865],[-88.0748,45.8649],[-88.0758,45.8696],[-88.0698,45.8729],[-88.0818,45.8802],[-88.1013,45.8823],[-88.1066,45.9022],[-88.0949,45.9153],[-88.1025,45.9215],[-88.1267,45.9218],[-88.1268,45.926],[-88.1477,45.9374],[-88.1701,45.9395],[-88.1921,45.9527],[-88.2099,45.9442],[-88.2371,45.9483],[-88.2448,45.9529],[-88.2469,45.9635],[-88.2938,45.9509],[-88.3203,45.9637],[-88.3273,45.955],[-88.3303,45.9658],[-88.3805,45.9918],[-88.3886,45.9826],[-88.4164,45.9751],[-88.4348,45.9883],[-88.45,45.9901],[-88.4587,45.9995],[-88.4708,46.001],[-88.4752,45.9931],[-88.4894,45.9914],[-88.498,45.9958],[-88.5064,46.0176],[-88.5147,46.02],[-88.5337,46.0211],[-88.5394,46.0145],[-88.5492,46.0129],[-88.5657,46.0157],[-88.5883,46.0051],[-88.5935,46.0148],[-88.6012,46.0178],[-88.6127,46.0045],[-88.616,45.9879],[-88.6385,45.9851],[-88.6708,45.9885],[-88.6635,45.9927],[-88.6789,46.0136],[-88.7037,46.0183],[-88.7183,46.0132],[-88.7213,46.0222],[-88.739,46.0275],[-88.759,46.0196],[-88.7706,46.0256],[-88.7698,46.0189],[-88.7802,46.0154],[-88.7839,46.0238],[-88.7787,46.0317],[-88.7893,46.0285],[-88.7965,46.0337],[-88.8007,46.03],[-88.7965,46.0236],[-88.816,46.0206],[-88.8191,46.0263],[-88.8391,46.03],[-88.8508,46.0403],[-89.0916,46.1384],[-89.5548,46.2279]]]}},{"type":"Feature","properties":{"STUSAB":"OH"},"geometry":{"type":"Polygon","coordinates":[[[-80.5191,40.9003],[-80.5199,42.3271],[-81.2498,42.2164],[-81.6864,42.0],[-81.7092,42.0],[-82.3983,41.6765],[-82.6811,41.6763],[-83.0693,41.8642],[-83.1125,41.9594],[-83.4159,41.7338],[-84.806,41.6961],[-84.8036,40.3121],[-84.8142,39.8137],[-84.8202,39.1054],[-84.7878,39.1153],[-84.7623,39.1422],[-84.7434,39.1476],[-84.7185,39.1369],[-84.6865,39.1011],[-84.6545,39.094],[-84.6325,39.0766],[-84.6075,39.0734],[-84.5719,39.0824],[-84.5517,39.0993],[-84.5256,39.0925],[-84.5109,39.0937],[-84.4758,39.1199],[-84.4525,39.1192],[-84.4352,39.1004],[-84.4327,39.0668],[-84.4264,39.0531],[-84.4081,39.0459],[-84.3476,39.0376],[-84.3266,39.0273],[-84.3061,39.0078],[-84.2888,38.9556],[-84.2343,38.8933],[-84.2319,38.8327],[-84.2253,38.8175],[-84.2131,38.8058],[-84.1472,38.7929],[-84.0708,38.7704],[-84.0438,38.7707],[-83.9781,38.7874],[-83.9624,38.7875],[-83.9432,38.7832],[-83.9257,38.7712],[-83.8694,38.7613],[-83.8489,38.7475],[-83.8368,38.7177],[-83.7845,38.6967],[-83.7691,38.6551],[-83.7209,38.6467],[-83.6689,38.6266],[-83.6478,38.6324],[-83.6362,38.6679],[-83.6255,38.6789],[-83.5211,38.7031],[-83.4936,38.6945],[-83.4677,38.6753],[-83.3776,38.6618],[-83.3578,38.6549],[-83.3276,38.6377],[-83.3179,38.6098],[-83.299,38.5974],[-83.2876,38.5985],[-83.2643,38.6214],[-83.2457,38.6286],[-83.2044,38.6168],[-83.1536,38.6188],[-83.1348,38.632],[-83.1124,38.6716],[-83.054,38.6951],[-83.0305,38.7258],[-83.0088,38.73],[-82.9715,38.7272],[-82.9347,38.7467],[-82.8904,38.7563],[-82.8795,38.7513],[-82.8718,38.7394],[-82.8699,38.7273],[-82.8775,38.6895],[-82.8604,38.6629],[-82.8545,38.6138],[-82.8425,38.5889],[-82.7959,38.5618],[-82.7279,38.5589],[-82.6983,38.5438],[-82.6536,38.4938],[-82.6108,38.472],[-82.5935,38.4183],[-82.5834,38.41],[-82.5706,38.405],[-82.5382,38.4041],[-82.4049,38.4393],[-82.3818,38.4348],[-82.3303,38.4445],[-82.3181,38.4579],[-82.3042,38.4963],[-82.304,38.5177],[-82.2957,38.5385],[-82.2913,38.579],[-82.2621,38.5982],[-82.201,38.5921],[-82.1888,38.595],[-82.1753,38.6071],[-82.1725,38.6288],[-82.1909,38.6804],[-82.1825,38.7088],[-82.1931,38.7377],[-82.1869,38.7223],[-82.188,38.7331],[-82.1989,38.7577],[-82.2196,38.7723],[-82.2216,38.7872],[-82.2114,38.8012],[-82.1912,38.8151],[-82.1636,38.8234],[-82.1455,38.8397],[-82.1392,38.865],[-82.1454,38.8842],[-82.1432,38.8981],[-82.1294,38.9079],[-82.1112,38.9366],[-82.1117,38.9326],[-82.1091,38.9456],[-82.0916,38.9738],[-82.0516,38.9944],[-82.0377,39.0239],[-82.0219,39.0295],[-82.0045,39.0289],[-81.9914,39.0184],[-81.9794,38.9932],[-81.9514,38.996],[-81.9332,38.9877],[-81.8985,38.9296],[-81.9267,38.9013],[-81.928,38.8935],[-81.903,38.8761],[-81.8892,38.8743],[-81.856,38.8927],[-81.8453,38.9101],[-81.8445,38.9287],[-81.8274,38.9459],[-81.8112,38.9447],[-81.7856,38.9262],[-81.7627,38.9241],[-81.757,38.9372],[-81.7788,38.9559],[-81.7818,38.9649],[-81.7741,38.9937],[-81.7652,39.0026],[-81.7643,39.0153],[-81.8081,39.0538],[-81.8139,39.0797],[-81.8067,39.0841],[-81.7756,39.0784],[-81.7608,39.0841],[-81.7461,39.097],[-81.7428,39.1427],[-81.7562,39.1805],[-81.7369,39.1926],[-81.7256,39.2159],[-81.7009,39.2208],[-81.6919,39.227],[-81.6966,39.2561],[-81.6836,39.2709],[-81.6453,39.2773],[-81.6058,39.2759],[-81.5702,39.2677],[-81.5652,39.2762],[-81.5575,39.3388],[-81.4561,39.4093],[-81.4356,39.4085],[-81.4127,39.3946],[-81.3938,39.3517],[-81.376,39.3417],[-81.3449,39.3468],[-81.2703,39.386],[-81.2444,39.3904],[-81.2173,39.3876],[-81.2082,39.4071],[-81.1851,39.4315],[-81.1676,39.4401],[-81.1325,39.4463],[-81.1008,39.4872],[-81.071,39.5156],[-80.9735,39.5884],[-80.9283,39.6166],[-80.8804,39.6207],[-80.8666,39.6526],[-80.8637,39.6917],[-80.8339,39.7035],[-80.8298,39.7118],[-80.846,39.7387],[-80.8653,39.7533],[-80.8691,39.7664],[-80.863,39.7752],[-80.8261,39.7986],[-80.8222,39.8117],[-80.8261,39.8442],[-80.7908,39.8673],[-80.794,39.8828],[-80.8092,39.9039],[-80.8068,39.9163],[-80.787,39.9184],[-80.7634,39.9086],[-80.7561,39.9134],[-80.7643,39.95],[-80.7579,39.9597],[-80.7401,39.9708],[-80.7422,40.0086],[-80.731,40.0443],[-80.7382,40.0786],[-80.7095,40.1003],[-80.7102,40.1383],[-80.7056,40.1535],[-80.6681,40.1997],[-80.6615,40.2298],[-80.6521,40.245],[-80.6193,40.2652],[-80.6149,40.292],[-80.5999,40.3177],[-80.6128,40.3477],[-80.6097,40.3749],[-80.6314,40.3857],[-80.6327,40.3905],[-80.6123,40.4028],[-80.6122,40.4348],[-80.596,40.4634],[-80.5954,40.4753],[-80.618,40.502],[-80.6275,40.5358],[-80.6644,40.57],[-80.6679,40.5829],[-80.6272,40.6199],[-80.5988,40.6253],[-80.5767,40.6142],[-80.5511,40.6288],[-80.519,40.6388],[-80.5191,40.9003]]]}},{"type":"Feature","properties":{"STUSAB":"IL"},"geometry":{"type":"Polygon","coordinates":[[[-87.8924,38.2829],[-87.8865,38.287],[-87.8794,38.3065],[-87.8689,38.3123],[-87.8605,38.3054],[-87.8662,38.29],[-87.8618,38.2786],[-87.8511,38.2751],[-87.839,38.2823],[-87.831,38.2994],[-87.8327,38.3249],[-87.8227,38.3469],[-87.8061,38.3631],[-87.78,38.3708],[-87.7453,38.409],[-87.741,38.4356],[-87.7301,38.4465],[-87.7357,38.453],[-87.7559,38.4559],[-87.75,38.4714],[-87.74,38.4792],[-87.714,38.4799],[-87.6932,38.488],[-87.6719,38.5076],[-87.6582,38.5017],[-87.6467,38.5078],[-87.6454,38.5138],[-87.6561,38.5217],[-87.6701,38.5452],[-87.6507,38.5562],[-87.6511,38.569],[-87.6382,38.5763],[-87.6384,38.5922],[-87.6229,38.5862],[-87.612,38.5892],[-87.6124,38.5946],[-87.6241,38.597],[-87.6273,38.6054],[-87.6156,38.625],[-87.6201,38.6395],[-87.6058,38.6465],[-87.6002,38.6625],[-87.5937,38.6674],[-87.5312,38.684],[-87.5196,38.6972],[-87.5195,38.7105],[-87.5062,38.7337],[-87.4958,38.7407],[-87.504,38.7485],[-87.4969,38.7668],[-87.5149,38.7705],[-87.4986,38.7765],[-87.4955,38.7846],[-87.5273,38.8181],[-87.5217,38.8266],[-87.5267,38.8504],[-87.5534,38.8624],[-87.5426,38.8653],[-87.5471,38.876],[-87.5349,38.8789],[-87.5443,38.889],[-87.5441,38.8951],[-87.5391,38.8961],[-87.536,38.887],[-87.5337,38.901],[-87.5168,38.9037],[-87.5276,38.9077],[-87.5277,38.9192],[-87.5188,38.9232],[-87.5167,38.9335],[-87.5218,38.9411],[-87.5122,38.9544],[-87.5295,38.9719],[-87.5783,38.9888],[-87.5604,38.9924],[-87.5791,39.0016],[-87.5697,39.0194],[-87.5804,39.0407],[-87.5723,39.0506],[-87.5726,39.0573],[-87.5964,39.0796],[-87.6203,39.0866],[-87.6157,39.1033],[-87.6528,39.1068],[-87.6521,39.1155],[-87.6408,39.1144],[-87.635,39.1221],[-87.6587,39.136],[-87.6528,39.1494],[-87.6422,39.1571],[-87.6277,39.1549],[-87.6415,39.1605],[-87.6404,39.1667],[-87.6196,39.171],[-87.6204,39.1852],[-87.6079,39.1845],[-87.6016,39.1925],[-87.5886,39.1978],[-87.5746,39.2184],[-87.5793,39.2436],[-87.5716,39.2523],[-87.5807,39.2552],[-87.5947,39.2487],[-87.6055,39.2611],[-87.6014,39.2744],[-87.6101,39.2822],[-87.5979,39.2995],[-87.6053,39.3032],[-87.6178,39.3013],[-87.6206,39.307],[-87.6059,39.3111],[-87.5891,39.3338],[-87.5783,39.3403],[-87.5544,39.3405],[-87.544,39.3529],[-87.5316,39.3479],[-87.5333,39.875],[-87.5262,40.5058],[-87.5237,41.7599],[-87.2078,41.761],[-87.15,42.0],[-87.0199,42.4935],[-87.7934,42.4917],[-88.1389,42.4956],[-88.7766,42.4919],[-89.6698,42.505],[-90.6428,42.5085],[-90.6567,42.4888],[-90.6464,42.4713],[-90.6063,42.4515],[-90.568,42.4404],[-90.5604,42.4329],[-90.555,42.4161],[-90.4773,42.3838],[-90.419,42.3285],[-90.4159,42.3227],[-90.421,42.3161],[-90.4189,42.3083],[-90.4309,42.2782],[-90.4193,42.2545],[-90.3911,42.2255],[-90.357,42.2054],[-90.3283,42.201],[-90.2822,42.1788],[-90.2501,42.1715],[-90.2161,42.1567],[-90.2083,42.151],[-90.2014,42.1309],[-90.1905,42.1258],[-90.1704,42.125],[-90.164,42.1183],[-90.1615,42.0989],[-90.1684,42.0758],[-90.1645,42.0421],[-90.1516,42.0306],[-90.1401,42.0033],[-90.1462,41.9813],[-90.1641,41.9562],[-90.1638,41.9449],[-90.1516,41.931],[-90.1536,41.9066],[-90.1819,41.8432],[-90.182,41.8071],[-90.2786,41.7674],[-90.3126,41.7399],[-90.3177,41.7227],[-90.3134,41.6981],[-90.3345,41.6796],[-90.3435,41.647],[-90.3395,41.5986],[-90.3432,41.5878],[-90.4128,41.5653],[-90.4614,41.5235],[-90.5006,41.518],[-90.5409,41.5261],[-90.591,41.5128],[-90.6021,41.506],[-90.6059,41.4942],[-90.6558,41.4621],[-90.7459,41.4497],[-90.8466,41.4551],[-90.9293,41.4215],[-90.9829,41.4342],[-91.0278,41.4236],[-91.0476,41.4113],[-91.0516,41.3853],[-91.0662,41.3664],[-91.0748,41.3056],[-91.092,41.2869],[-91.1142,41.25],[-91.1137,41.2414],[-91.073,41.2072],[-91.0416,41.1662],[-91.0076,41.1662],[-90.995,41.1606],[-90.9466,41.0966],[-90.9494,41.0728],[-90.9423,41.0347],[-90.9459,41.0065],[-90.9581,40.9798],[-90.9522,40.954],[-90.9626,40.9258],[-91.0095,40.9006],[-91.0216,40.884],[-91.0447,40.8684],[-91.0564,40.8484],[-91.093,40.8211],[-91.0976,40.8056],[-91.0917,40.7797],[-91.1104,40.7455],[-91.1157,40.7252],[-91.1119,40.697],[-91.1239,40.6692],[-91.187,40.6373],[-91.2531,40.638],[-91.3066,40.6262],[-91.3397,40.6135],[-91.3599,40.6018],[-91.3798,40.5745],[-91.4015,40.5595],[-91.4064,40.5518],[-91.4041,40.5391],[-91.3845,40.5309],[-91.3642,40.5],[-91.3665,40.4789],[-91.3818,40.4426],[-91.3728,40.4143],[-91.3729,40.3991],[-91.3842,40.3864],[-91.4151,40.3817],[-91.4463,40.3618],[-91.464,40.3396],[-91.4899,40.286],[-91.4905,40.2595],[-91.5065,40.2363],[-91.5045,40.1983],[-91.513,40.1811],[-91.5082,40.1577],[-91.5117,40.1392],[-91.4896,40.0574],[-91.4949,40.0365],[-91.4653,39.984],[-91.4194,39.9277],[-91.4209,39.9149],[-91.4435,39.8936],[-91.4469,39.883],[-91.4467,39.8716],[-91.4355,39.8451],[-91.3765,39.81],[-91.3624,39.7905],[-91.3694,39.7312],[-91.3473,39.7105],[-91.2761,39.6658],[-91.2293,39.6209],[-91.1819,39.6027],[-91.1747,39.5933],[-91.1684,39.5649],[-91.1536,39.5482],[-91.1003,39.5387],[-91.0798,39.5077],[-91.0643,39.4946],[-91.0594,39.4689],[-91.0383,39.4484],[-90.9938,39.423],[-90.9408,39.404],[-90.9287,39.3875],[-90.9049,39.3794],[-90.8938,39.3673],[-90.8475,39.3453],[-90.8169,39.3205],[-90.7935,39.3095],[-90.7516,39.2654],[-90.73,39.2559],[-90.7171,39.2139],[-90.7079,39.1509],[-90.6861,39.1178],[-90.6811,39.1006],[-90.6827,39.0883],[-90.7125,39.0571],[-90.7127,39.0497],[-90.6782,38.9919],[-90.6759,38.9621],[-90.663,38.9263],[-90.637,38.9051],[-90.6234,38.8871],[-90.5823,38.8688],[-90.5489,38.8729],[-90.4997,38.9106],[-90.4871,38.9259],[-90.4831,38.9431],[-90.4717,38.9592],[-90.4513,38.9677],[-90.4399,38.9674],[-90.3927,38.9591],[-90.3095,38.9241],[-90.2502,38.9193],[-90.223,38.9074],[-90.1976,38.8876],[-90.1133,38.8493],[-90.1091,38.8374],[-90.1194,38.8018],[-90.1664,38.7727],[-90.1763,38.7545],[-90.2052,38.7322],[-90.2114,38.7214],[-90.2092,38.7028],[-90.1864,38.6748],[-90.1811,38.6596],[-90.178,38.6338],[-90.1845,38.6116],[-90.196,38.5945],[-90.2242,38.5751],[-90.2578,38.532],[-90.2911,38.4309],[-90.3415,38.3883],[-90.3708,38.3336],[-90.3724,38.2837],[-90.3586,38.222],[-90.3302,38.1865],[-90.2906,38.1704],[-90.2748,38.1576],[-90.2426,38.1121],[-90.2233,38.0978],[-90.176,38.0707],[-90.1583,38.075],[-90.1296,38.0614],[-90.1262,38.0407],[-90.1105,38.0265],[-90.0883,38.0158],[-90.0594,38.0155],[-89.9968,37.9632],[-89.965,37.9644],[-89.9407,37.9709],[-89.9359,37.9596],[-89.9246,37.9598],[-89.9313,37.9483],[-89.9473,37.9403],[-89.9598,37.9401],[-89.9621,37.9339],[-89.9747,37.9271],[-89.9653,37.9023],[-89.9478,37.8798],[-89.9234,37.8707],[-89.9024,37.8697],[-89.8797,37.8807],[-89.8619,37.8977],[-89.8426,37.9052],[-89.7993,37.8815],[-89.7975,37.8621],[-89.7863,37.8517],[-89.782,37.8551],[-89.7541,37.8464],[-89.7399,37.8469],[-89.7174,37.8257],[-89.6696,37.7999],[-89.6604,37.7863],[-89.668,37.7595],[-89.6634,37.7501],[-89.6495,37.7455],[-89.6173,37.7497],[-89.6157,37.7427],[-89.5975,37.7335],[-89.5833,37.7133],[-89.5314,37.7003],[-89.5165,37.6925],[-89.512,37.681],[-89.5177,37.6412],[-89.4759,37.593],[-89.4775,37.5859],[-89.4861,37.5809],[-89.5198,37.5827],[-89.5219,37.5607],[-89.5171,37.5373],[-89.4755,37.4714],[-89.4398,37.4372],[-89.4205,37.388],[-89.4328,37.3471],[-89.489,37.3334],[-89.5108,37.3127],[-89.518,37.2842],[-89.4899,37.2513],[-89.4705,37.2534],[-89.4588,37.2487],[-89.4676,37.2182],[-89.4561,37.1881],[-89.4256,37.1382],[-89.4117,37.1225],[-89.388,37.1075],[-89.3771,37.0908],[-89.3757,37.0805],[-89.3854,37.0562],[-89.3816,37.043],[-89.3624,37.0302],[-89.323,37.0161],[-89.2921,36.9922],[-89.2786,36.9887],[-89.2696,36.9934],[-89.2576,37.0155],[-89.2663,37.0287],[-89.3048,37.0476],[-89.3108,37.0579],[-89.3077,37.0697],[-89.2599,37.0641],[-89.2549,37.072],[-89.2341,37.0373],[-89.2008,37.0162],[-89.1921,36.98],[-89.1855,36.9735],[-89.17,36.9703],[-89.1329,36.9821],[-89.1702,37.0071],[-89.1794,37.0218],[-89.1825,37.0392],[-89.1738,37.0663],[-89.1557,37.0877],[-89.1461,37.091],[-89.1506,37.0937],[-89.1482,37.0984],[-89.1258,37.1085],[-89.1095,37.1231],[-89.0928,37.1568],[-89.0765,37.1747],[-89.0295,37.2113],[-89.0001,37.2248],[-88.9774,37.2294],[-88.9162,37.224],[-88.8036,37.1882],[-88.733,37.1441],[-88.6926,37.1411],[-88.6155,37.1154],[-88.5899,37.0998],[-88.5659,37.0752],[-88.5112,37.0653],[-88.4826,37.0673],[-88.4593,37.0752],[-88.4456,37.0933],[-88.443,37.1119],[-88.4247,37.1523],[-88.4331,37.1626],[-88.448,37.2036],[-88.4722,37.2203],[-88.4874,37.2443],[-88.5114,37.2615],[-88.5039,37.2648],[-88.5159,37.2841],[-88.4866,37.3405],[-88.4765,37.3871],[-88.4694,37.3974],[-88.4502,37.4122],[-88.4092,37.4253],[-88.3645,37.4017],[-88.3236,37.434],[-88.2816,37.4527],[-88.1965,37.4607],[-88.1352,37.4718],[-88.0855,37.4716],[-88.0654,37.4888],[-88.0611,37.5046],[-88.0695,37.5261],[-88.0894,37.5364],[-88.1057,37.5566],[-88.1365,37.5773],[-88.1419,37.6033],[-88.1571,37.6333],[-88.1598,37.6606],[-88.1215,37.7102],[-88.0703,37.7333],[-88.0593,37.743],[-88.0425,37.7673],[-88.0363,37.7912],[-88.028,37.7992],[-88.0298,37.8063],[-88.0376,37.8099],[-88.0689,37.801],[-88.09,37.8168],[-88.0909,37.8245],[-88.0819,37.8307],[-88.0438,37.8215],[-88.0315,37.8251],[-88.0259,37.8327],[-88.0314,37.8412],[-88.065,37.8532],[-88.0785,37.8791],[-88.0979,37.9015],[-88.0957,37.9058],[-88.0862,37.9057],[-88.0554,37.8912],[-88.0313,37.893],[-88.0211,37.8881],[-88.0135,37.894],[-88.0225,37.9148],[-88.0592,37.9172],[-88.0695,37.9257],[-88.0571,37.9342],[-88.045,37.9251],[-88.0341,37.9262],[-88.0303,37.931],[-88.0368,37.9568],[-88.0209,37.9594],[-88.0129,37.9665],[-88.0126,37.9771],[-88.0258,38.0072],[-88.021,38.0193],[-88.0079,38.0308],[-88.0176,38.0347],[-88.0341,38.032],[-88.0415,38.0373],[-88.0421,38.0463],[-88.03,38.0521],[-88.0013,38.0515],[-87.9787,38.0598],[-87.9672,38.0671],[-87.9567,38.0862],[-87.9607,38.1002],[-88.0101,38.0844],[-88.0159,38.0998],[-87.9982,38.1086],[-87.9753,38.1101],[-87.9743,38.122],[-87.9664,38.1325],[-87.9549,38.1326],[-87.9455,38.1266],[-87.9258,38.1436],[-87.9279,38.1516],[-87.9109,38.1626],[-87.9131,38.1715],[-87.9217,38.1738],[-87.926,38.1593],[-87.9343,38.1565],[-87.9372,38.1722],[-87.9775,38.1998],[-87.9856,38.218],[-87.9798,38.2417],[-87.9881,38.2567],[-87.9819,38.2564],[-87.9723,38.247],[-87.969,38.2374],[-87.961,38.2368],[-87.9576,38.25],[-87.943,38.2578],[-87.9521,38.2738],[-87.9403,38.2811],[-87.9348,38.2951],[-87.9214,38.2993],[-87.9095,38.2961],[-87.9085,38.291],[-87.9193,38.2759],[-87.9141,38.2683],[-87.8924,38.2829]]]}},{"type":"Feature","properties":{"STUSAB":"MN"},"geometry":{"type":"Polygon","coordinates":[[[-95.3199,48.9989],[-97.229,49.0005],[-97.2342,48.9963],[-97.2266,48.993],[-97.2381,48.9836],[-97.2389,48.967],[-97.2275,48.9623],[-97.234,48.9474],[-97.2266,48.9458],[-97.2246,48.9338],[-97.2144,48.9316],[-97.2198,48.9221],[-97.2108,48.916],[-97.2121,48.9067],[-97.1899,48.8952],[-97.2016,48.8919],[-97.1973,48.8873],[-97.1995,48.8813],[-97.1778,48.8756],[-97.1906,48.8643],[-97.1792,48.8628],[-97.1731,48.8506],[-97.1829,48.8469],[-97.1758,48.8448],[-97.1739,48.838],[-97.1842,48.8339],[-97.178,48.8228],[-97.1903,48.8151],[-97.1581,48.8103],[-97.1592,48.8062],[-97.1816,48.7985],[-97.1633,48.8006],[-97.1625,48.7967],[-97.174,48.7939],[-97.1582,48.7912],[-97.1589,48.7833],[-97.1475,48.7814],[-97.159,48.7757],[-97.1455,48.7648],[-97.1544,48.7582],[-97.1538,48.754],[-97.1375,48.7496],[-97.1367,48.7425],[-97.1421,48.7362],[-97.1283,48.7321],[-97.1374,48.7266],[-97.1101,48.708],[-97.1199,48.7012],[-97.1087,48.691],[-97.0903,48.6844],[-97.1013,48.6823],[-97.1006,48.6684],[-97.1092,48.6642],[-97.0987,48.661],[-97.1157,48.6446],[-97.1094,48.6325],[-97.1311,48.6315],[-97.1195,48.6186],[-97.1339,48.6228],[-97.1296,48.6137],[-97.1506,48.6117],[-97.1343,48.6074],[-97.154,48.5954],[-97.1423,48.5926],[-97.1439,48.5821],[-97.1606,48.5809],[-97.1487,48.5764],[-97.1492,48.57],[-97.1754,48.562],[-97.139,48.5551],[-97.1416,48.5513],[-97.1639,48.554],[-97.166,48.5489],[-97.161,48.542],[-97.1414,48.5355],[-97.1536,48.5295],[-97.1524,48.5204],[-97.1268,48.5202],[-97.1366,48.5122],[-97.1503,48.5116],[-97.1492,48.5008],[-97.1315,48.489],[-97.143,48.4923],[-97.1403,48.4847],[-97.1627,48.4778],[-97.1282,48.4744],[-97.1474,48.4728],[-97.143,48.4638],[-97.1285,48.4603],[-97.1307,48.4522],[-97.1506,48.4408],[-97.1248,48.4419],[-97.1278,48.4313],[-97.1459,48.4311],[-97.1226,48.4179],[-97.1384,48.4216],[-97.154,48.4181],[-97.1505,48.4127],[-97.1399,48.4185],[-97.1312,48.4073],[-97.1457,48.3974],[-97.1634,48.3929],[-97.152,48.3829],[-97.1333,48.3822],[-97.1414,48.3785],[-97.1379,48.3712],[-97.1525,48.371],[-97.1563,48.3656],[-97.1362,48.3522],[-97.1401,48.3446],[-97.1259,48.3406],[-97.129,48.3329],[-97.1417,48.3257],[-97.1292,48.3281],[-97.1156,48.3239],[-97.1326,48.3191],[-97.1377,48.3097],[-97.1242,48.3111],[-97.1267,48.304],[-97.1122,48.2965],[-97.1192,48.2942],[-97.1276,48.299],[-97.1373,48.2918],[-97.1355,48.2871],[-97.1231,48.2908],[-97.1166,48.2797],[-97.1251,48.2767],[-97.1253,48.2704],[-97.145,48.2688],[-97.123,48.2617],[-97.1306,48.259],[-97.1251,48.25],[-97.1467,48.2445],[-97.1337,48.2391],[-97.1446,48.2336],[-97.1207,48.2248],[-97.1372,48.227],[-97.1522,48.2196],[-97.1391,48.222],[-97.1229,48.2165],[-97.1178,48.2098],[-97.1237,48.2076],[-97.1314,48.2172],[-97.1393,48.2168],[-97.1293,48.2084],[-97.1409,48.2045],[-97.1357,48.1971],[-97.1498,48.1835],[-97.1384,48.1823],[-97.136,48.1767],[-97.1475,48.1706],[-97.142,48.1602],[-97.1254,48.1628],[-97.121,48.1596],[-97.1403,48.1509],[-97.1465,48.1422],[-97.1229,48.1398],[-97.1335,48.1371],[-97.1207,48.115],[-97.1232,48.1067],[-97.1115,48.1059],[-97.1019,48.0959],[-97.1099,48.0914],[-97.0998,48.0859],[-97.1045,48.0724],[-97.0723,48.0481],[-97.0687,48.0277],[-97.0722,48.0191],[-97.0633,48.015],[-97.0668,48.0096],[-97.0639,47.9977],[-97.0531,47.9904],[-97.0618,47.9647],[-97.0525,47.9574],[-97.0553,47.9475],[-97.0365,47.9396],[-97.0364,47.9308],[-97.0179,47.9199],[-97.0238,47.9156],[-97.0153,47.9067],[-97.0252,47.9077],[-97.0198,47.9013],[-97.025,47.8952],[-97.0188,47.8905],[-97.0254,47.8849],[-97.018,47.8787],[-97.0231,47.8741],[-97.0018,47.8681],[-97.0059,47.8645],[-96.9983,47.8592],[-96.994,47.846],[-96.9983,47.8419],[-96.9863,47.8371],[-96.9815,47.8296],[-96.9871,47.8256],[-96.9741,47.8235],[-96.9805,47.8219],[-96.9787,47.8099],[-96.9916,47.8082],[-96.9723,47.8028],[-96.9763,47.7978],[-96.9665,47.7996],[-96.9571,47.791],[-96.9651,47.7835],[-96.958,47.7857],[-96.9591,47.7806],[-96.9524,47.7794],[-96.9563,47.7751],[-96.9468,47.7751],[-96.9349,47.7672],[-96.9383,47.7608],[-96.9289,47.7553],[-96.9397,47.7548],[-96.9292,47.7504],[-96.9328,47.7375],[-96.9184,47.724],[-96.931,47.7155],[-96.9198,47.7169],[-96.9199,47.7104],[-96.9119,47.7068],[-96.9209,47.7],[-96.912,47.7015],[-96.907,47.6944],[-96.9095,47.6892],[-96.8992,47.6896],[-96.8962,47.6742],[-96.8851,47.6738],[-96.8899,47.6697],[-96.8824,47.6427],[-96.8882,47.6389],[-96.8744,47.6278],[-96.8805,47.626],[-96.8759,47.6234],[-96.8797,47.6193],[-96.871,47.6181],[-96.8736,47.6135],[-96.8571,47.6107],[-96.8568,47.6018],[-96.851,47.5985],[-96.8589,47.5957],[-96.8499,47.5908],[-96.8537,47.5789],[-96.8605,47.575],[-96.8516,47.5687],[-96.8689,47.567],[-96.8631,47.5625],[-96.8475,47.5662],[-96.8617,47.5593],[-96.8498,47.5532],[-96.8604,47.5459],[-96.8453,47.5388],[-96.8623,47.5412],[-96.8535,47.5362],[-96.8712,47.5273],[-96.8609,47.5155],[-96.8424,47.5161],[-96.8536,47.5115],[-96.8423,47.5086],[-96.8525,47.5075],[-96.8535,47.5016],[-96.8488,47.4981],[-96.865,47.4917],[-96.8522,47.4864],[-96.8685,47.4785],[-96.8519,47.4791],[-96.861,47.4726],[-96.8539,47.4604],[-96.8636,47.457],[-96.8543,47.4546],[-96.8593,47.4517],[-96.8559,47.4392],[-96.8629,47.4364],[-96.8528,47.432],[-96.8647,47.4281],[-96.8553,47.4243],[-96.8718,47.419],[-96.861,47.4177],[-96.8568,47.4097],[-96.8421,47.4117],[-96.8527,47.4061],[-96.8391,47.3994],[-96.849,47.3936],[-96.8375,47.3895],[-96.8422,47.3862],[-96.8392,47.3812],[-96.85,47.3816],[-96.8437,47.3758],[-96.8546,47.3738],[-96.8371,47.3713],[-96.8582,47.3675],[-96.8484,47.3646],[-96.8505,47.3571],[-96.8374,47.3555],[-96.8446,47.3543],[-96.8471,47.3477],[-96.8306,47.3388],[-96.8458,47.328],[-96.8288,47.328],[-96.8369,47.3248],[-96.8355,47.3191],[-96.847,47.3158],[-96.843,47.3088],[-96.8365,47.3115],[-96.8307,47.3061],[-96.8438,47.2931],[-96.8401,47.2756],[-96.8477,47.2712],[-96.8347,47.2662],[-96.8474,47.2619],[-96.8358,47.2622],[-96.8452,47.2585],[-96.8385,47.2562],[-96.8444,47.2512],[-96.8373,47.253],[-96.8322,47.2468],[-96.8437,47.2398],[-96.8365,47.2424],[-96.8287,47.2333],[-96.8415,47.2332],[-96.8414,47.2295],[-96.8315,47.2267],[-96.8458,47.2201],[-96.8336,47.2216],[-96.8372,47.2159],[-96.8303,47.2103],[-96.8372,47.2073],[-96.8272,47.2013],[-96.834,47.2035],[-96.8448,47.1936],[-96.8402,47.191],[-96.838,47.1965],[-96.8264,47.1915],[-96.8346,47.1837],[-96.8216,47.1843],[-96.8275,47.182],[-96.825,47.1779],[-96.8335,47.1766],[-96.8225,47.1731],[-96.8252,47.1675],[-96.8193,47.1638],[-96.832,47.1594],[-96.8224,47.1563],[-96.8362,47.1566],[-96.8412,47.1519],[-96.8286,47.1464],[-96.8346,47.1439],[-96.8263,47.1349],[-96.8304,47.1292],[-96.8207,47.1304],[-96.8258,47.1231],[-96.8376,47.122],[-96.8284,47.1208],[-96.8212,47.1158],[-96.8221,47.1089],[-96.8162,47.1085],[-96.821,47.1009],[-96.8173,47.0921],[-96.8264,47.0889],[-96.816,47.0885],[-96.8204,47.083],[-96.8158,47.079],[-96.8293,47.0746],[-96.8196,47.0753],[-96.8245,47.0715],[-96.8197,47.0617],[-96.8304,47.0608],[-96.8222,47.0595],[-96.8251,47.0556],[-96.8177,47.0523],[-96.8276,47.0463],[-96.8179,47.0471],[-96.8227,47.0369],[-96.8127,47.0386],[-96.8171,47.0333],[-96.8273,47.0321],[-96.8148,47.0244],[-96.8295,47.0216],[-96.8348,47.0174],[-96.8335,47.0101],[-96.8395,47.0067],[-96.821,47.0033],[-96.8195,46.9974],[-96.8239,46.9974],[-96.8223,46.9906],[-96.8264,46.9879],[-96.8201,46.9794],[-96.8227,46.97],[-96.8098,46.9638],[-96.8065,46.9676],[-96.795,46.9658],[-96.8038,46.9582],[-96.799,46.9511],[-96.8041,46.9469],[-96.7921,46.9459],[-96.7915,46.9277],[-96.7868,46.9302],[-96.7852,46.9244],[-96.7797,46.9283],[-96.7767,46.9257],[-96.7749,46.9305],[-96.7622,46.9349],[-96.7563,46.9286],[-96.7649,46.9269],[-96.7527,46.9235],[-96.7629,46.9235],[-96.7545,46.9144],[-96.7597,46.9164],[-96.7651,46.9054],[-96.7712,46.9063],[-96.7738,46.9036],[-96.7703,46.9007],[-96.776,46.898],[-96.7694,46.8926],[-96.7747,46.8894],[-96.7736,46.8847],[-96.7674,46.884],[-96.7692,46.8782],[-96.7813,46.8797],[-96.7761,46.8742],[-96.7817,46.8714],[-96.784,46.8617],[-96.7759,46.8546],[-96.7855,46.8534],[-96.7735,46.8517],[-96.7818,46.8456],[-96.7746,46.8396],[-96.7868,46.8412],[-96.7845,46.8333],[-96.794,46.8331],[-96.7801,46.8254],[-96.7924,46.8273],[-96.8028,46.8117],[-96.7957,46.8077],[-96.8029,46.8056],[-96.7956,46.8012],[-96.8021,46.7967],[-96.7949,46.7958],[-96.7962,46.7899],[-96.7871,46.7857],[-96.7968,46.777],[-96.7838,46.7782],[-96.7892,46.7712],[-96.7755,46.7668],[-96.7895,46.766],[-96.7779,46.7616],[-96.7864,46.7619],[-96.7829,46.7567],[-96.7898,46.7567],[-96.7829,46.7542],[-96.7894,46.752],[-96.7804,46.7455],[-96.7874,46.7431],[-96.7805,46.7418],[-96.7846,46.7319],[-96.7791,46.7266],[-96.7912,46.7189],[-96.7821,46.7169],[-96.7896,46.7096],[-96.7838,46.706],[-96.7912,46.7037],[-96.7842,46.7014],[-96.7906,46.6891],[-96.7841,46.6853],[-96.7948,46.6833],[-96.7875,46.6771],[-96.7991,46.6785],[-96.7989,46.674],[-96.7913,46.6724],[-96.795,46.6672],[-96.8022,46.6679],[-96.7952,46.6662],[-96.8,46.6611],[-96.7989,46.6541],[-96.7858,46.6405],[-96.7982,46.6295],[-96.7822,46.6314],[-96.7913,46.625],[-96.7783,46.6254],[-96.7873,46.6194],[-96.7755,46.6212],[-96.7812,46.6154],[-96.7708,46.6153],[-96.7725,46.6093],[-96.7788,46.6075],[-96.7682,46.6063],[-96.7722,46.6038],[-96.7716,46.5962],[-96.756,46.5954],[-96.7626,46.5893],[-96.7508,46.5852],[-96.7609,46.5818],[-96.7473,46.582],[-96.7575,46.5778],[-96.7558,46.5743],[-96.7466,46.5755],[-96.7528,46.5714],[-96.7454,46.5708],[-96.7474,46.5675],[-96.7418,46.564],[-96.752,46.5626],[-96.7468,46.5588],[-96.7544,46.5568],[-96.746,46.5561],[-96.7492,46.5496],[-96.7406,46.5468],[-96.7505,46.5441],[-96.7387,46.5432],[-96.7501,46.5408],[-96.7383,46.5393],[-96.7427,46.5381],[-96.738,46.5346],[-96.7462,46.5349],[-96.7421,46.5293],[-96.7453,46.525],[-96.7367,46.5241],[-96.7452,46.5202],[-96.7342,46.5121],[-96.7404,46.5111],[-96.7335,46.5035],[-96.7424,46.5],[-96.7334,46.497],[-96.737,46.4916],[-96.7341,46.4886],[-96.7397,46.4867],[-96.7325,46.4829],[-96.7389,46.4787],[-96.7336,46.4805],[-96.7236,46.4709],[-96.7146,46.4723],[-96.7231,46.4667],[-96.7132,46.4665],[-96.7187,46.4619],[-96.7116,46.4598],[-96.7176,46.4544],[-96.7131,46.4502],[-96.7217,46.4488],[-96.7133,46.4488],[-96.7164,46.4446],[-96.7123,46.4413],[-96.7219,46.4398],[-96.7154,46.434],[-96.7157,46.4373],[-96.7033,46.4373],[-96.7077,46.4298],[-96.6989,46.4264],[-96.7046,46.418],[-96.6933,46.4221],[-96.6922,46.4161],[-96.7015,46.4151],[-96.6854,46.4142],[-96.6891,46.4068],[-96.6805,46.4071],[-96.6725,46.3953],[-96.6751,46.391],[-96.6677,46.3912],[-96.671,46.3895],[-96.6671,46.3756],[-96.6578,46.3744],[-96.6604,46.3716],[-96.655,46.3659],[-96.6432,46.3619],[-96.6485,46.3581],[-96.6452,46.3507],[-96.6294,46.3543],[-96.6278,46.3494],[-96.6167,46.3474],[-96.6202,46.3402],[-96.5994,46.33],[-96.6061,46.3266],[-96.6,46.3268],[-96.6012,46.3195],[-96.5968,46.317],[-96.6036,46.3025],[-96.5973,46.2978],[-96.6058,46.2939],[-96.5962,46.291],[-96.602,46.2859],[-96.5949,46.2863],[-96.6005,46.2811],[-96.5953,46.2742],[-96.6004,46.2617],[-96.5929,46.2573],[-96.5923,46.2503],[-96.5837,46.2498],[-96.5987,46.2423],[-96.5958,46.2198],[-96.5884,46.2129],[-96.5911,46.2087],[-96.5838,46.2081],[-96.589,46.2049],[-96.5843,46.2041],[-96.5846,46.1975],[-96.5912,46.1957],[-96.5851,46.1946],[-96.5916,46.1847],[-96.5862,46.1818],[-96.5927,46.1752],[-96.5806,46.1773],[-96.5835,46.1727],[-96.5766,46.1739],[-96.5839,46.1706],[-96.5753,46.169],[-96.5806,46.1676],[-96.5763,46.1596],[-96.5803,46.1511],[-96.5687,46.1332],[-96.572,46.1246],[-96.5602,46.1166],[-96.5669,46.1148],[-96.5579,46.1025],[-96.5544,46.0841],[-96.5591,46.0585],[-96.5779,46.0274],[-96.5703,45.9636],[-96.5613,45.9457],[-96.564,45.9196],[-96.57,45.9135],[-96.5645,45.9095],[-96.5812,45.823],[-96.6125,45.7944],[-96.6278,45.7862],[-96.6395,45.7716],[-96.6419,45.7599],[-96.6626,45.7387],[-96.7451,45.7016],[-96.7609,45.6875],[-96.8386,45.6475],[-96.8568,45.6054],[-96.7634,45.52],[-96.7327,45.4587],[-96.6925,45.4173],[-96.6805,45.4105],[-96.6198,45.4089],[-96.5621,45.3861],[-96.5218,45.3756],[-96.4891,45.3571],[-96.4531,45.3008],[-96.4533,43.5004],[-91.2177,43.5006],[-91.2183,43.5144],[-91.2329,43.524],[-91.2432,43.5403],[-91.2432,43.5507],[-91.2328,43.5648],[-91.2319,43.5818],[-91.269,43.6166],[-91.2624,43.6418],[-91.2717,43.6549],[-91.2733,43.6666],[-91.2685,43.7098],[-91.2559,43.7298],[-91.2554,43.7449],[-91.2441,43.7747],[-91.2624,43.7922],[-91.2841,43.8471],[-91.311,43.8674],[-91.3206,43.8885],[-91.3381,43.8977],[-91.3477,43.912],[-91.3574,43.9172],[-91.3666,43.9375],[-91.3858,43.9542],[-91.4074,43.9651],[-91.4323,43.9967],[-91.5071,44.019],[-91.5921,44.0314],[-91.6105,44.0493],[-91.6479,44.0641],[-91.6815,44.0974],[-91.7075,44.1039],[-91.7106,44.1205],[-91.7216,44.1303],[-91.7517,44.1348],[-91.8081,44.1593],[-91.8292,44.1783],[-91.8752,44.2006],[-91.8774,44.2129],[-91.8927,44.2311],[-91.887,44.2518],[-91.896,44.2629],[-91.8964,44.2747],[-91.9246,44.2918],[-91.9136,44.3104],[-91.9186,44.3227],[-91.9256,44.3335],[-91.9413,44.341],[-91.9668,44.364],[-92.0381,44.3887],[-92.0565,44.4027],[-92.0786,44.4049],[-92.1245,44.4221],[-92.1954,44.4338],[-92.2309,44.4445],[-92.291,44.4855],[-92.3022,44.5003],[-92.303,44.5186],[-92.3141,44.538],[-92.3361,44.554],[-92.4157,44.5605],[-92.4386,44.5526],[-92.4589,44.5627],[-92.481,44.5684],[-92.4937,44.5661],[-92.5192,44.5753],[-92.5489,44.5683],[-92.5498,44.5811],[-92.5689,44.6034],[-92.5772,44.605],[-92.5862,44.6001],[-92.6016,44.612],[-92.6216,44.6149],[-92.6202,44.6342],[-92.632,44.6492],[-92.661,44.6609],[-92.732,44.7143],[-92.7923,44.7394],[-92.8082,44.7511],[-92.8044,44.7708],[-92.7856,44.7919],[-92.7808,44.8123],[-92.7659,44.8356],[-92.7695,44.862],[-92.7634,44.8741],[-92.7746,44.8981],[-92.7587,44.909],[-92.7506,44.9373],[-92.7546,44.9558],[-92.7694,44.9721],[-92.7712,45.0014],[-92.7621,45.0243],[-92.7956,45.0492],[-92.8031,45.0616],[-92.7927,45.0788],[-92.7396,45.1156],[-92.7522,45.1425],[-92.7491,45.1487],[-92.7524,45.1739],[-92.7668,45.1855],[-92.7639,45.2049],[-92.7517,45.2187],[-92.7603,45.2517],[-92.7519,45.2659],[-92.762,45.2882],[-92.7371,45.3005],[-92.7048,45.3265],[-92.699,45.3364],[-92.7027,45.3585],[-92.6792,45.3727],[-92.6641,45.3933],[-92.6503,45.3988],[-92.6465,45.4403],[-92.6535,45.4553],[-92.6802,45.4643],[-92.7129,45.5048],[-92.7267,45.5145],[-92.7248,45.5386],[-92.7456,45.553],[-92.7734,45.5682],[-92.8233,45.5609],[-92.8711,45.5676],[-92.8837,45.5755],[-92.8864,45.5987],[-92.8825,45.6102],[-92.8894,45.6412],[-92.8701,45.6968],[-92.8692,45.7176],[-92.8098,45.7442],[-92.7846,45.7642],[-92.7765,45.79],[-92.7578,45.8066],[-92.7651,45.8302],[-92.74,45.8463],[-92.7382,45.862],[-92.7077,45.8949],[-92.6774,45.9058],[-92.6762,45.9121],[-92.6561,45.9244],[-92.6391,45.9246],[-92.6388,45.9342],[-92.6143,45.9345],[-92.5519,45.9517],[-92.5498,45.968],[-92.5252,45.9839],[-92.4698,45.9736],[-92.4616,45.9789],[-92.4645,45.985],[-92.4534,45.9929],[-92.4423,46.0162],[-92.4286,46.0242],[-92.4119,46.0275],[-92.3727,46.0142],[-92.3518,46.0157],[-92.3329,46.0627],[-92.294,46.0744],[-92.2913,46.6681],[-92.2706,46.6507],[-92.2566,46.6587],[-92.2425,46.6492],[-92.2071,46.6519],[-92.2016,46.6566],[-92.2041,46.6669],[-92.1759,46.6865],[-92.183,46.6957],[-92.2052,46.6983],[-92.2047,46.704],[-92.1891,46.7175],[-92.1673,46.7199],[-92.1467,46.7158],[-92.1415,46.7253],[-92.1433,46.7346],[-92.1166,46.7486],[-92.0895,46.7492],[-92.034,46.7089],[-92.0203,46.704],[-91.9813,46.7231],[-91.5002,46.9133],[-90.6547,47.3098],[-89.9571,47.2911],[-89.4834,48.0137],[-89.5643,48.0029],[-89.581,47.9959],[-89.5855,48.0018],[-89.6081,48.0069],[-89.6107,48.0179],[-89.6184,48.0109],[-89.638,48.0091],[-89.6371,48.0041],[-89.6509,48.0036],[-89.662,48.0108],[-89.7024,48.0064],[-89.7161,48.0094],[-89.7162,48.0169],[-89.7242,48.0138],[-89.7195,48.0185],[-89.7237,48.0208],[-89.7754,48.0229],[-89.7968,48.0149],[-89.8199,48.0155],[-89.8313,47.9996],[-89.8448,48.0031],[-89.8425,47.9973],[-89.8472,47.9926],[-89.8682,47.9902],[-89.8719,47.9855],[-89.8955,47.9873],[-89.9221,47.9972],[-89.9346,48.0158],[-89.9506,48.0162],[-89.9531,48.0108],[-89.9938,48.0281],[-89.9981,48.0579],[-90.0087,48.0685],[-90.0148,48.0671],[-90.0233,48.0847],[-90.0741,48.1012],[-90.116,48.1042],[-90.1408,48.1126],[-90.2252,48.1082],[-90.2892,48.0991],[-90.31,48.1056],[-90.3301,48.1023],[-90.3443,48.0943],[-90.3743,48.0909],[-90.4032,48.1051],[-90.4385,48.0987],[-90.4674,48.1087],[-90.4867,48.0991],[-90.5567,48.0959],[-90.5697,48.1068],[-90.5555,48.1169],[-90.5591,48.1217],[-90.5797,48.1238],[-90.5913,48.1174],[-90.6271,48.1118],[-90.6415,48.1035],[-90.7516,48.091],[-90.7614,48.0984],[-90.7687,48.1166],[-90.7898,48.1301],[-90.7822,48.1359],[-90.7982,48.1369],[-90.7778,48.1483],[-90.7779,48.1638],[-90.7964,48.1592],[-90.8041,48.1778],[-90.8175,48.1794],[-90.821,48.1847],[-90.8258,48.1836],[-90.8247,48.1768],[-90.8325,48.1735],[-90.8364,48.177],[-90.8393,48.2396],[-90.8477,48.2445],[-90.8751,48.2378],[-90.8858,48.246],[-90.9151,48.2308],[-90.977,48.2196],[-91.0237,48.1904],[-91.0825,48.1812],[-91.1199,48.1607],[-91.1426,48.1546],[-91.1373,48.1493],[-91.1829,48.1222],[-91.1901,48.1251],[-91.2149,48.1029],[-91.2668,48.0788],[-91.3313,48.0696],[-91.34,48.0736],[-91.365,48.0671],[-91.3708,48.0697],[-91.3909,48.0572],[-91.4296,48.0487],[-91.4386,48.0503],[-91.45,48.0691],[-91.4882,48.0684],[-91.5675,48.0438],[-91.5755,48.0489],[-91.5754,48.0667],[-91.5694,48.0937],[-91.5528,48.1032],[-91.5591,48.1086],[-91.6399,48.0971],[-91.6531,48.1098],[-91.6518,48.114],[-91.6651,48.1071],[-91.6876,48.1119],[-91.6821,48.1225],[-91.7034,48.1137],[-91.7118,48.1146],[-91.6978,48.1416],[-91.7081,48.153],[-91.7048,48.1707],[-91.7244,48.1705],[-91.7104,48.1925],[-91.7154,48.1995],[-91.7421,48.2046],[-91.7415,48.1993],[-91.7484,48.1987],[-91.7559,48.206],[-91.7886,48.1963],[-91.7911,48.2025],[-91.8095,48.2063],[-91.8155,48.2118],[-91.8644,48.2069],[-91.8676,48.2192],[-91.8843,48.2274],[-91.8931,48.238],[-91.9149,48.2389],[-91.9421,48.2304],[-91.9584,48.2331],[-91.9583,48.2438],[-91.948,48.2459],[-91.9541,48.2523],[-91.97,48.2538],[-91.9756,48.2443],[-91.9892,48.2603],[-92.0065,48.2654],[-92.013,48.2974],[-92.0001,48.3211],[-92.0308,48.3257],[-92.0377,48.3331],[-92.0469,48.3348],[-92.0451,48.3457],[-92.0552,48.3594],[-92.0782,48.358],[-92.0836,48.3537],[-92.1437,48.356],[-92.1449,48.3657],[-92.1774,48.3571],[-92.1785,48.3518],[-92.1928,48.3487],[-92.2039,48.3518],[-92.2067,48.3456],[-92.217,48.345],[-92.2625,48.3549],[-92.2888,48.3428],[-92.2954,48.3239],[-92.3045,48.3228],[-92.3062,48.3162],[-92.2945,48.3062],[-92.3014,48.2883],[-92.2932,48.276],[-92.2946,48.2712],[-92.2736,48.2565],[-92.2696,48.2482],[-92.3366,48.2357],[-92.3699,48.2203],[-92.3873,48.2443],[-92.3859,48.2513],[-92.3924,48.2512],[-92.3892,48.2537],[-92.4156,48.2951],[-92.4367,48.3089],[-92.4698,48.3521],[-92.4765,48.3719],[-92.4564,48.4011],[-92.4564,48.4141],[-92.4755,48.4186],[-92.5075,48.448],[-92.6562,48.4365],[-92.6881,48.4437],[-92.7127,48.463],[-92.6987,48.4948],[-92.627,48.5033],[-92.6319,48.5067],[-92.6255,48.5179],[-92.6349,48.5426],[-92.6578,48.5462],[-92.7284,48.5394],[-92.8945,48.595],[-92.9101,48.5964],[-92.9296,48.6069],[-92.95,48.6083],[-92.9498,48.6303],[-92.9548,48.6315],[-92.9846,48.6238],[-93.0903,48.6278],[-93.1784,48.6233],[-93.2075,48.6425],[-93.2547,48.6428],[-93.3487,48.6265],[-93.3527,48.6135],[-93.362,48.614],[-93.3715,48.6059],[-93.3954,48.6038],[-93.4057,48.6098],[-93.4398,48.5937],[-93.4655,48.5916],[-93.4577,48.5597],[-93.4674,48.5465],[-93.5425,48.53],[-93.5762,48.527],[-93.5901,48.5304],[-93.6123,48.5224],[-93.6285,48.5319],[-93.6434,48.519],[-93.6593,48.5164],[-93.7934,48.5163],[-93.8185,48.5314],[-93.811,48.5409],[-93.812,48.5503],[-93.8042,48.5702],[-93.8063,48.5795],[-93.8334,48.6256],[-93.8444,48.6302],[-93.953,48.6341],[-94.007,48.6433],[-94.0356,48.641],[-94.0659,48.6461],[-94.1261,48.6443],[-94.2242,48.6495],[-94.2509,48.6569],[-94.2547,48.6614],[-94.253,48.6863],[-94.2645,48.699],[-94.2912,48.7078],[-94.3088,48.7103],[-94.3431,48.7034],[-94.3841,48.7118],[-94.4158,48.711],[-94.4388,48.6948],[-94.4524,48.6924],[-94.5385,48.7027],[-94.549,48.7147],[-94.5877,48.7176],[-94.6192,48.7373],[-94.6454,48.744],[-94.652,48.7561],[-94.6909,48.778],[-94.6944,48.7894],[-94.6951,48.8092],[-94.7043,48.8242],[-94.702,48.8318],[-94.6856,48.84],[-94.6931,48.8534],[-94.6924,48.869],[-94.6843,48.8724],[-94.6835,48.8841],[-94.7496,49.0987],[-94.7728,49.1205],[-94.798,49.1979],[-94.7973,49.2143],[-94.8255,49.2944],[-94.8244,49.309],[-94.8163,49.3214],[-94.8541,49.3243],[-94.9574,49.3702],[-94.989,49.3689],[-95.0142,49.3565],[-95.0583,49.3533],[-95.1287,49.3705],[-95.1534,49.3845],[-95.1532,48.9989],[-95.3199,48.9989]]]}}]}